BEIDOU-2 IGSO-5         
1 37948U 11073A   26183.72937883 -.00000128  00000+0  00000+0 0  9990
2 37948  47.6496 271.3544 0114527 222.0502 141.5350  1.00270596 53296
LUCH-5A                 
1 37951U 11074B   26204.93055020 -.00000051  00000+0  00000+0 0  9991
2 37951   8.8442  73.2649 0002936  62.9904 307.4542  1.00275041 53423
BEIDOU-2 G5             
1 38091U 12008A   26205.05170968  .00000059  00000+0  00000+0 0  9995
2 38091   3.6634  69.4619 0006970 271.4498  38.1528  1.00273878 52737
BEIDOU-2 M3             
1 38250U 12018A   26205.23881848 -.00000092  00000+0  00000+0 0  9997
2 38250  55.7232 303.6253 0021243 272.1640  87.6257  1.86230011 96631
BEIDOU-2 M4             
1 38251U 12018B   26205.17118006 -.00000091  00000+0  00000+0 0  9999
2 38251  55.6233 302.8385 0012339 272.0123  87.8801  1.86229576 96631
SES-5                   
1 38652U 12036A   26205.25483123  .00000039  00000+0  00000+0 0  9999
2 38652   0.0433 324.0397 0002365 155.1674 279.4770  1.00272481 44828
BEIDOU-2 M6             
1 38775U 12050B   26204.88072225 -.00000067  00000+0  00000+0 0  9998
2 38775  56.5768  61.6815 0012603   2.5915 357.4818  1.86231109 93997
GSAT-10                 
1 38779U 12051B   26205.14975341 -.00000160  00000+0  00000+0 0  9998
2 38779   0.0697 261.6648 0007669 195.1305 342.0025  1.00272292 50469
NAVSTAR 67 (USA 239)    
1 38833U 12053A   26205.21006801 -.00000018  00000+0  00000+0 0  9997
2 38833  53.5905 142.0824 0182604  66.3944 295.4858  2.00568173100181
GSAT0103 (GALILEO-FM3)  
1 38857U 12055A   26200.15144010 -.00000035  00000+0  00000+0 0  9997
2 38857  55.8248 100.6680 0003622 312.6356  47.3724  1.70473478 85556
BEIDOU-2 G6             
1 38953U 12059A   26205.14975341 -.00000175  00000+0  00000+0 0  9996
2 38953   4.5127  73.1198 0008914 330.1113  36.5922  1.00273144 50286
LUCH-5B                 
1 38977U 12061A   26205.03271955 -.00000141  00000+0  00000+0 0  9996
2 38977  10.5613  49.5109 0003900 141.5817 106.1303  1.00270998 49978
COSMOS 2485 [GLONASS-M] 
1 39155U 13019A   26204.04299087 -.00000047  00000+0  00000+0 0  9990
2 39155  65.4401  72.4015 0022553 230.4230 129.4454  2.13103192103044
NAVSTAR 68 (USA 242)    
1 39166U 13023A   26205.07803324 -.00000004  00000+0  00000+0 0  9999
2 39166  54.4764 267.4688 0141408  51.1077 310.2189  2.00563475 96626
IRNSS-1A                
1 39199U 13034A   26203.69637116  .00000051  00000+0  00000+0 0  9998
2 39199  35.7966  63.3613 0018791 179.4799   3.3059  1.00271851 47728
NAVSTAR 69 (USA 248)    
1 39533U 14008A   26205.07989546 -.00000006  00000+0  00000+0 0  9994
2 39533  53.6584 147.8149 0084015 231.5780 127.6395  2.00562238 90420
ASTRA 5B                
1 39617U 14011B   26205.22822350  .00000142  00000+0  00000+0 0  9997
2 39617   0.0600 315.5653 0002272 175.2603 276.7296  1.00273227 45034
COSMOS 2492 [GLONASS-M] 
1 39620U 14012A   26204.47110810 -.00000088  00000+0  00000+0 0  9999
2 39620  65.2739 312.7022 0010366 315.8790  44.0582  2.13103261 96018
IRNSS-1B                
1 39635U 14017A   26203.69637116  .00000145  00000+0  00000+0 0  9999
2 39635  28.8725 239.7926 0021340 191.4522 174.9685  1.00267424 45153
LUCH-5V                 
1 39727U 14023A   26205.16469454 -.00000268  00000+0  00000+0 0  9997
2 39727   5.2220  69.3582 0002438  79.1179 307.4451  1.00271375 44733
NAVSTAR 70 (USA 251)    
1 39741U 14026A   26204.35904777 -.00000111  00000+0  00000+0 0  9995
2 39741  56.4786 330.1096 0038204 325.5236  34.2337  2.00558475 89260
COSMOS 2500 [GLONASS-M] 
1 40001U 14032A   26204.17115103 -.00000089  00000+0  00000+0 0  9994
2 40001  65.2090 312.4566 0008517 191.8913 168.1090  2.13105924 94228
NAVSTAR 71 (USA 256)    
1 40105U 14045A   26204.94920933 -.00000064  00000+0  00000+0 0  9996
2 40105  55.3771  87.0002 0034774 118.5553 241.8471  2.00560973 86812
GSAT0201 (GALILEO 5)    
1 40128U 14050A   26205.06792512 -.00000032  00000+0  00000+0 0  9996
2 40128  48.8352 271.9216 1679644 180.8346 178.9040  1.85519945 79004
GSAT0202 (GALILEO 6)    
1 40129U 14050B   26203.70637764 -.00000045  00000+0  00000+0 0  9997
2 40129  48.8542 271.0635 1680735 181.4997 177.9799  1.85520638 81143
IRNSS-1C                
1 40269U 14061A   26204.62877325 -.00000163  00000+0  00000+0 0  9996
2 40269   6.6072  88.2365 0021855   6.4251 156.0981  1.00270971 43054
NAVSTAR 72 (USA 258)    
1 40294U 14068A   26204.31923838 -.00000075  00000+0  00000+0 0  9990
2 40294  57.0124  29.5642 0067458  72.5690 288.2082  2.00553866 85937
COSMOS 2501 [GLONASS-K] 
1 40315U 14075A   26203.02584043  .00000091  00000+0  00000+0 0  9997
2 40315  63.6188 189.1661 0022620 212.4834 147.3802  2.13101382 90594
NAVSTAR 73 (USA 260)    
1 40534U 15013A   26204.95852159  .00000083  00000+0  00000+0 0  9993
2 40534  53.1716 202.6565 0110315  40.2385 320.5907  2.00573899 82560
GSAT0203 (GALILEO 7)    
1 40544U 15017A   26204.58091979 -.00000106  00000+0  00000+0 0  9999
2 40544  56.7734 340.6048 0002911 252.6238 107.3389  1.70476521 69826
GSAT0204 (GALILEO 8)    
1 40545U 15017B   26204.25023220 -.00000106  00000+0  00000+0 0  9998
2 40545  56.7812 340.6325 0003029 234.2784 125.6881  1.70475959 32863
