OBJECT_NAME,OBJECT_ID,EPOCH,MEAN_MOTION,ECCENTRICITY,INCLINATION,RA_OF_ASC_NODE,ARG_OF_PERICENTER,MEAN_ANOMALY,EPHEMERIS_TYPE,CLASSIFICATION_TYPE,NORAD_CAT_ID,ELEMENT_SET_NO,REV_AT_EPOCH,BSTAR,MEAN_MOTION_DOT,MEAN_MOTION_DDOT
BEIDOU-2 IGSO-5 (C10),2011-073A,2026-07-02T17:30:18.330912,1.00270596,.01145273,47.6496,271.3544,222.0502,141.5350,0,U,37948,999,5329,0,-.128E-5,0
LUCH 5A (SDCM/PRN 140),2011-074B,2026-07-23T22:19:59.537280,1.00275041,.00029364,8.8442,73.2649,62.9904,307.4542,0,U,37951,999,5342,0,-.51E-6,0
BEIDOU-2 G5 (C05),2012-008A,2026-07-24T01:14:27.716352,1.00273878,.00069701,3.6634,69.4619,271.4498,38.1528,0,U,38091,999,5273,0,.59E-6,0
BEIDOU-2 M3 (C11),2012-018A,2026-07-24T05:43:53.916672,1.86230011,.00212432,55.7232,303.6253,272.1640,87.6257,0,U,38250,999,9663,0,-.92E-6,0
BEIDOU-2 M4 (C12),2012-018B,2026-07-24T04:06:29.957184,1.86229576,.00123395,55.6233,302.8385,272.0123,87.8801,0,U,38251,999,9663,0,-.91E-6,0
SES-5 (EGNOS/PRN 136),2012-036A,2026-07-24T06:06:57.418272,1.00272481,.00023656,0.0433,324.0397,155.1674,279.4770,0,U,38652,999,4482,0,.39E-6,0
BEIDOU-2 M6 (C14),2012-050B,2026-07-23T21:08:14.402400,1.86231109,.00126033,56.5768,61.6815,2.5915,357.4818,0,U,38775,999,9399,0,-.67E-6,0
GSAT-10 (GAGAN/PRN 128),2012-051B,2026-07-24T03:35:38.694624,1.00272292,.00076696,0.0697,261.6648,195.1305,342.0025,0,U,38779,999,5046,0,-.16E-5,0
GPS BIIF-3  (PRN 24),2012-053A,2026-07-24T05:02:29.876064,2.00568173,.0182604,53.5905,142.0824,66.3944,295.4858,0,U,38833,999,10018,0,-.18E-6,0
GSAT0103 (GALILEO-FM3),2012-055A,2026-07-19T03:38:04.424640,1.70473478,.0003622,55.8248,100.6680,312.6356,47.3724,0,U,38857,999,8555,0,-.35E-6,0
BEIDOU-2 G6 (C02),2012-059A,2026-07-24T03:35:38.694624,1.00273144,.00089141,4.5127,73.1198,330.1113,36.5922,0,U,38953,999,5028,0,-.175E-5,0
LUCH 5B (SDCM/PRN 125),2012-061A,2026-07-24T00:47:06.969120,1.00270998,.00039003,10.5613,49.5109,141.5817,106.1303,0,U,38977,999,4997,0,-.141E-5,0
COSMOS 2485 (747),2013-019A,2026-07-23T01:01:54.411168,2.13103192,.0022553,65.4401,72.4015,230.4230,129.4454,0,U,39155,999,10304,0,-.47E-6,0
GPS BIIF-4  (PRN 27),2013-023A,2026-07-24T01:52:22.071936,2.00563475,.01414083,54.4764,267.4688,51.1077,310.2189,0,U,39166,999,9662,0,-.4E-7,0
IRNSS-1A,2013-034A,2026-07-22T16:42:46.468224,1.00271851,.00187917,35.7966,63.3613,179.4799,3.3059,0,U,39199,999,4772,0,.51E-6,0
GPS BIIF-5  (PRN 30),2014-008A,2026-07-24T01:55:02.967744,2.00562238,.00840155,53.6584,147.8149,231.5780,127.6395,0,U,39533,999,9042,0,-.6E-7,0
ASTRA 5B (EGNOS/PRN 123),2014-011B,2026-07-24T05:28:38.510400,1.00273227,.00022727,0.0600,315.5653,175.2603,276.7296,0,U,39617,999,4503,0,.142E-5,0
COSMOS 2492 (754),2014-012A,2026-07-23T11:18:23.739840,2.13103261,.00103662,65.2739,312.7022,315.8790,44.0582,0,U,39620,999,9601,0,-.88E-6,0
IRNSS-1B,2014-017A,2026-07-22T16:42:46.468224,1.00267424,.00213406,28.8725,239.7926,191.4522,174.9685,0,U,39635,999,4515,0,.145E-5,0
LUCH 5V (SDCM/PRN 141),2014-023A,2026-07-24T03:57:09.608256,1.00271375,.00024382,5.2220,69.3582,79.1179,307.4451,0,U,39727,999,4473,0,-.268E-5,0
GPS BIIF-6  (PRN 06),2014-026A,2026-07-23T08:37:01.727328,2.00558475,.0038204,56.4786,330.1096,325.5236,34.2337,0,U,39741,999,8926,0,-.111E-5,0
COSMOS 2500 (755),2014-032A,2026-07-23T04:06:27.448992,2.13105924,.0008517,65.2090,312.4566,191.8913,168.1090,0,U,40001,999,9422,0,-.89E-6,0
GPS BIIF-7  (PRN 09),2014-045A,2026-07-23T22:46:51.686112,2.00560973,.00347746,55.3771,87.0002,118.5553,241.8471,0,U,40105,999,8681,0,-.64E-6,0
GSAT0201 (GALILEO 5),2014-050A,2026-07-24T01:37:48.730368,1.85519945,.1679644,48.8352,271.9216,180.8346,178.9040,0,U,40128,999,7900,0,-.32E-6,0
GSAT0202 (GALILEO 6),2014-050B,2026-07-22T16:57:11.028096,1.85520638,.1680735,48.8542,271.0635,181.4997,177.9799,0,U,40129,999,8114,0,-.45E-6,0
IRNSS-1C,2014-061A,2026-07-23T15:05:26.008800,1.00270971,.00218557,6.6072,88.2365,6.4251,156.0981,0,U,40269,999,4305,0,-.163E-5,0
GPS BIIF-8  (PRN 03),2014-068A,2026-07-23T07:39:42.196032,2.00553866,.0067458,57.0124,29.5642,72.5690,288.2082,0,U,40294,999,8593,0,-.75E-6,0
COSMOS 2501 (702K),2014-075A,2026-07-22T00:37:12.613152,2.13101382,.00226207,63.6188,189.1661,212.4834,147.3802,0,U,40315,999,9059,0,.91E-6,0
GPS BIIF-9  (PRN 26),2015-013A,2026-07-23T23:00:16.265376,2.00573899,.01103154,53.1716,202.6565,40.2385,320.5907,0,U,40534,999,8256,0,.83E-6,0
GSAT0203 (GALILEO 7),2015-017A,2026-07-23T13:56:31.469856,1.70476521,.00029118,56.7734,340.6048,252.6238,107.3389,0,U,40544,999,6982,0,-.106E-5,0
GSAT0204 (GALILEO 8),2015-017B,2026-07-23T06:00:20.062080,1.70475959,.0003029,56.7812,340.6325,234.2784,125.6881,0,U,40545,999,3286,0,-.106E-5,0
